start=new Date('2021-10-03T00:00:00.000Z').valueOf();
sats=[{"GP_ID":"186051848","OBJECT_ID":"2021-024AB","FILE":"3141323","SEMIMAJOR_AXIS":"6837.472","MEAN_ANOMALY":"272.2563","EPHEMERIS_TYPE":"0","INCLINATION":"53.0454","OBJECT_TYPE":"PAYLOAD","NORAD_CAT_ID":"48002","REF_FRAME":"TEME","COUNTRY_CODE":"US","LAUNCH_DATE":"2021-03-24","MEAN_ELEMENT_THEORY":"SGP4","MEAN_MOTION":"15.35533876","REV_AT_EPOCH":"366","ECCENTRICITY":"0.00016290","TIME_SYSTEM":"UTC","PERIOD":"93.778","MEAN_MOTION_DOT":"-0.00933776","ARG_OF_PERICENTER":"37.0707","EPOCH":"2021-10-03T00:00:00.999648","APOAPSIS":"460.451","RCS_SIZE":"LARGE","SITE":"AFETR","MEAN_MOTION_DDOT":"0.0000000000000","BSTAR":"-0.02910500000000","PERIAPSIS":"458.223","RA_OF_ASC_NODE":"329.6732","OBJECT_NAME":"STARLINK-2265","ELEMENT_SET_NO":"999","DECAY_DATE":null,"TLE_LINE2":"2 48002  53.0454 329.6732 0001629  37.0707 272.2563 15.35533876  3669","TLE_LINE1":"1 48002U 21024AB  21276.00001157 -.00933776  00000-0 -29105-1 0  9990","CENTER_NAME":"EARTH","CLASSIFICATION_TYPE":"U"},{"OBJECT_NAME":"STARLINK-2263","RA_OF_ASC_NODE":"44.5897","ELEMENT_SET_NO":"999","TLE_LINE2":"2 48003  53.0551  44.5897 0001363  83.7561 276.3583 15.06397339 30470","DECAY_DATE":null,"TLE_LINE1":"1 48003U 21024AC  21275.68653250  .00004766  00000-0  33864-3 0  9996","CLASSIFICATION_TYPE":"U","CENTER_NAME":"EARTH","BSTAR":"0.00033864000000","PERIAPSIS":"546.278","EPOCH":"2021-10-02T16:28:36.408000","APOAPSIS":"548.166","RCS_SIZE":"LARGE","MEAN_MOTION_DDOT":"0.0000000000000","SITE":"AFETR","MEAN_MOTION_DOT":"0.00004766","ARG_OF_PERICENTER":"83.7561","TIME_SYSTEM":"UTC","ECCENTRICITY":"0.00013630","REV_AT_EPOCH":"3047","PERIOD":"95.592","MEAN_ELEMENT_THEORY":"SGP4","MEAN_MOTION":"15.06397339","REF_FRAME":"TEME","COUNTRY_CODE":"US","LAUNCH_DATE":"2021-03-24","FILE":"3141323","GP_ID":"186053100","OBJECT_ID":"2021-024AC","SEMIMAJOR_AXIS":"6925.357","MEAN_ANOMALY":"276.3583","EPHEMERIS_TYPE":"0","NORAD_CAT_ID":"48003","INCLINATION":"53.0551","OBJECT_TYPE":"PAYLOAD"},{"ARG_OF_PERICENTER":"288.2801","MEAN_MOTION_DOT":"-0.00000114","RCS_SIZE":"LARGE","MEAN_MOTION_DDOT":"0.0000000000000","SITE":"AFETR","EPOCH":"2021-10-03T00:00:00.999648","APOAPSIS":"354.986","PERIAPSIS":"344.457","BSTAR":"0.00000368360000","DECAY_DATE":null,"TLE_LINE2":"2 48004  53.0546 326.8273 0007825 288.2801 353.5873 15.73213588  3687","TLE_LINE1":"1 48004U 21024AD  21276.00001157 -.00000114  00000-0  36836-5 0  9995","CLASSIFICATION_TYPE":"U","CENTER_NAME":"EARTH","OBJECT_NAME":"STARLINK-2261","RA_OF_ASC_NODE":"326.8273","ELEMENT_SET_NO":"999","MEAN_ANOMALY":"353.5873","EPHEMERIS_TYPE":"0","NORAD_CAT_ID":"48004","INCLINATION":"53.0546","OBJECT_TYPE":"PAYLOAD","GP_ID":"186052850","FILE":"3141323","OBJECT_ID":"2021-024AD","SEMIMAJOR_AXIS":"6727.856","COUNTRY_CODE":"US","LAUNCH_DATE":"2021-03-24","REF_FRAME":"TEME","MEAN_ELEMENT_THEORY":"SGP4","MEAN_MOTION":"15.73213588","PERIOD":"91.532","TIME_SYSTEM":"UTC","REV_AT_EPOCH":"368","ECCENTRICITY":"0.00078250"},{"RCS_SIZE":"LARGE","MEAN_MOTION_DDOT":"0.0000000000000","SITE":"AFETR","EPOCH":"2021-10-02T14:19:53.404032","APOAPSIS":"549.519","ARG_OF_PERICENTER":"39.7655","MEAN_MOTION_DOT":"0.00000134","TLE_LINE2":"2 48005  53.0595  14.9936 0003309  39.7655 320.3576 15.06395481 30885","TLE_LINE1":"1 48005U 21024AE  21275.59714588  .00000134  00000-0  27972-4 0  9999","DECAY_DATE":null,"CLASSIFICATION_TYPE":"U","CENTER_NAME":"EARTH","OBJECT_NAME":"STARLINK-2254","RA_OF_ASC_NODE":"14.9936","ELEMENT_SET_NO":"999","PERIAPSIS":"544.936","BSTAR":"0.00002797200000","COUNTRY_CODE":"US","LAUNCH_DATE":"2021-03-24","REF_FRAME":"TEME","EPHEMERIS_TYPE":"0","MEAN_ANOMALY":"320.3576","NORAD_CAT_ID":"48005","INCLINATION":"53.0595","OBJECT_TYPE":"PAYLOAD","FILE":"3141323","GP_ID":"186051598","OBJECT_ID":"2021-024AE","SEMIMAJOR_AXIS":"6925.362","PERIOD":"95.592","TIME_SYSTEM":"UTC","REV_AT_EPOCH":"3088","ECCENTRICITY":"0.00033090","MEAN_ELEMENT_THEORY":"SGP4","MEAN_MOTION":"15.06395481"},{"CLASSIFICATION_TYPE":"U","CENTER_NAME":"EARTH","TLE_LINE1":"1 48006U 21024AF  21276.00001157  .00117721  00000-0  77732-3 0  9997","TLE_LINE2":"2 48006  53.0450 326.7443 0008034 304.5329   8.4197 15.74723225  3681","DECAY_DATE":null,"ELEMENT_SET_NO":"999","OBJECT_NAME":"STARLINK-2277","RA_OF_ASC_NODE":"326.7443","PERIAPSIS":"340.019","BSTAR":"0.00077732000000","MEAN_MOTION_DDOT":"0.0000000000000","SITE":"AFETR","RCS_SIZE":"LARGE","EPOCH":"2021-10-03T00:00:00.999648","APOAPSIS":"350.823","ARG_OF_PERICENTER":"304.5329","MEAN_MOTION_DOT":"0.00117721","PERIOD":"91.445","TIME_SYSTEM":"UTC","REV_AT_EPOCH":"368","ECCENTRICITY":"0.00080340","MEAN_MOTION":"15.74723225","MEAN_ELEMENT_THEORY":"SGP4","LAUNCH_DATE":"2021-03-24","COUNTRY_CODE":"US","REF_FRAME":"TEME","NORAD_CAT_ID":"48006","INCLINATION":"53.0450","OBJECT_TYPE":"PAYLOAD","EPHEMERIS_TYPE":"0","MEAN_ANOMALY":"8.4197","SEMIMAJOR_AXIS":"6723.556","GP_ID":"186052349","OBJECT_ID":"2021-024AF","FILE":"3141323"},{"TIME_SYSTEM":"UTC","REV_AT_EPOCH":"368","ECCENTRICITY":"0.00024910","PERIOD":"91.535","MEAN_ELEMENT_THEORY":"SGP4","MEAN_MOTION":"15.73167699","REF_FRAME":"TEME","COUNTRY_CODE":"US","LAUNCH_DATE":"2021-03-24","GP_ID":"186052600","FILE":"3141323","OBJECT_ID":"2021-024AG","SEMIMAJOR_AXIS":"6727.987","EPHEMERIS_TYPE":"0","MEAN_ANOMALY":"268.8246","NORAD_CAT_ID":"48007","INCLINATION":"53.0453","OBJECT_TYPE":"PAYLOAD","OBJECT_NAME":"STARLINK-2259","RA_OF_ASC_NODE":"326.8058","ELEMENT_SET_NO":"999","DECAY_DATE":null,"TLE_LINE2":"2 48007  53.0453 326.8058 0002491  14.5963 268.8246 15.73167699  3684","TLE_LINE1":"1 48007U 21024AG  21276.00001157  .00003496  00000-0  29367-4 0  9993","CLASSIFICATION_TYPE":"U","CENTER_NAME":"EARTH","BSTAR":"0.00002936700000","PERIAPSIS":"348.176","EPOCH":"2021-10-03T00:00:00.999648","APOAPSIS":"351.528","RCS_SIZE":"LARGE","SITE":"AFETR","MEAN_MOTION_DDOT":"0.0000000000000","MEAN_MOTION_DOT":"0.00003496","ARG_OF_PERICENTER":"14.5963"},{"COUNTRY_CODE":"US","LAUNCH_DATE":"2021-03-24","REF_FRAME":"TEME","EPHEMERIS_TYPE":"0","MEAN_ANOMALY":"148.7284","INCLINATION":"53.0443","OBJECT_TYPE":"PAYLOAD","NORAD_CAT_ID":"48008","GP_ID":"186053351","FILE":"3141323","OBJECT_ID":"2021-024AH","SEMIMAJOR_AXIS":"6727.917","PERIOD":"91.534","REV_AT_EPOCH":"367","ECCENTRICITY":"0.00045450","TIME_SYSTEM":"UTC","MEAN_ELEMENT_THEORY":"SGP4","MEAN_MOTION":"15.73192393","RCS_SIZE":"LARGE","SITE":"AFETR","MEAN_MOTION_DDOT":"0.0000000000000","APOAPSIS":"352.840","EPOCH":"2021-10-03T00:00:00.999648","ARG_OF_PERICENTER":"341.8690","MEAN_MOTION_DOT":"-0.00003804","TLE_LINE2":"2 48008  53.0443 327.1126 0004545 341.8690 148.7284 15.73192393  3675","TLE_LINE1":"1 48008U 21024AH  21276.00001157 -.00003804  00000-0 -22646-4 0  9992","DECAY_DATE":null,"CENTER_NAME":"EARTH","CLASSIFICATION_TYPE":"U","RA_OF_ASC_NODE":"327.1126","OBJECT_NAME":"STARLINK-2271","ELEMENT_SET_NO":"999","PERIAPSIS":"346.724","BSTAR":"-0.00002264600000"},{"REF_FRAME":"TEME","LAUNCH_DATE":"2021-03-24","COUNTRY_CODE":"US","SEMIMAJOR_AXIS":"6925.379","FILE":"3141323","GP_ID":"186052099","OBJECT_ID":"2021-024AJ","INCLINATION":"53.0562","OBJECT_TYPE":"PAYLOAD","NORAD_CAT_ID":"48009","EPHEMERIS_TYPE":"0","MEAN_ANOMALY":"257.2495","REV_AT_EPOCH":"3076","ECCENTRICITY":"0.00011640","TIME_SYSTEM":"UTC","PERIOD":"95.593","MEAN_MOTION":"15.06390173","MEAN_ELEMENT_THEORY":"SGP4","APOAPSIS":"548.050","EPOCH":"2021-10-02T16:19:17.213376","SITE":"AFETR","MEAN_MOTION_DDOT":"0.0000000000000","RCS_SIZE":"LARGE","MEAN_MOTION_DOT":"-0.00001099","ARG_OF_PERICENTER":"102.8624","ELEMENT_SET_NO":"999","RA_OF_ASC_NODE":"24.6214","OBJECT_NAME":"STARLINK-2153","CENTER_NAME":"EARTH","CLASSIFICATION_TYPE":"U","TLE_LINE2":"2 48009  53.0562  24.6214 0001164 102.8624 257.2495 15.06390173 30763","DECAY_DATE":null,"TLE_LINE1":"1 48009U 21024AJ  21275.68006034 -.00001099  00000-0 -54911-4 0  9999","BSTAR":"-0.00005491100000","PERIAPSIS":"546.438"},{"MEAN_MOTION_DOT":"0.00001469","ARG_OF_PERICENTER":"90.0784","EPOCH":"2021-10-02T14:58:20.724672","APOAPSIS":"548.147","RCS_SIZE":"LARGE","MEAN_MOTION_DDOT":"0.0000000000000","SITE":"AFETR","BSTAR":"0.00011752000000","PERIAPSIS":"546.283","RA_OF_ASC_NODE":"44.9124","OBJECT_NAME":"STARLINK-2226","ELEMENT_SET_NO":"999","TLE_LINE2":"2 48010  53.0532  44.9124 0001346  90.0784 270.0359 15.06399611 30470","TLE_LINE1":"1 48010U 21024AK  21275.62385098  .00001469  00000-0  11752-3 0  9999","DECAY_DATE":null,"CENTER_NAME":"EARTH","CLASSIFICATION_TYPE":"U","GP_ID":"186051849","OBJECT_ID":"2021-024AK","FILE":"3141323","SEMIMAJOR_AXIS":"6925.350","MEAN_ANOMALY":"270.0359","EPHEMERIS_TYPE":"0","OBJECT_TYPE":"PAYLOAD","INCLINATION":"53.0532","NORAD_CAT_ID":"48010","REF_FRAME":"TEME","COUNTRY_CODE":"US","LAUNCH_DATE":"2021-03-24","MEAN_ELEMENT_THEORY":"SGP4","MEAN_MOTION":"15.06399611","REV_AT_EPOCH":"3047","ECCENTRICITY":"0.00013460","TIME_SYSTEM":"UTC","PERIOD":"95.592"},{"CLASSIFICATION_TYPE":"U","CENTER_NAME":"EARTH","TLE_LINE2":"2 48011  53.0549  24.4697 0001219  97.6096 262.5032 15.06402937 30824","DECAY_DATE":null,"TLE_LINE1":"1 48011U 21024AL  21275.71321051  .00001285  00000-0  10511-3 0  9997","ELEMENT_SET_NO":"999","OBJECT_NAME":"STARLINK-2272","RA_OF_ASC_NODE":"24.4697","PERIAPSIS":"546.360","BSTAR":"0.00010511000000","SITE":"AFETR","MEAN_MOTION_DDOT":"0.0000000000000","RCS_SIZE":"LARGE","APOAPSIS":"548.049","EPOCH":"2021-10-02T17:07:01.388064","ARG_OF_PERICENTER":"97.6096","MEAN_MOTION_DOT":"0.00001285","PERIOD":"95.592","TIME_SYSTEM":"UTC","REV_AT_EPOCH":"3082","ECCENTRICITY":"0.00012190","MEAN_MOTION":"15.06402937","MEAN_ELEMENT_THEORY":"SGP4","LAUNCH_DATE":"2021-03-24","COUNTRY_CODE":"US","REF_FRAME":"TEME","NORAD_CAT_ID":"48011","OBJECT_TYPE":"PAYLOAD","INCLINATION":"53.0549","MEAN_ANOMALY":"262.5032","EPHEMERIS_TYPE":"0","SEMIMAJOR_AXIS":"6925.340","OBJECT_ID":"2021-024AL","GP_ID":"186053101","FILE":"3141323"}];
